CCSDS_OEM_VERS = 1.0
CREATION_DATE  = 2017-05-11T11:13:03
ORIGINATOR     = GMAT USER

META_START
OBJECT_NAME          = MOPSSat_alt_35785_km_RAAN_90_037
OBJECT_ID            = SatId
CENTER_NAME          = Earth
REF_FRAME            = EME2000
TIME_SYSTEM          = UTC
START_TIME           = 2017-01-01T00:00:00.000
USEABLE_START_TIME   = 2017-01-01T00:00:00.000
USEABLE_STOP_TIME    = 2017-01-02T00:00:00.000
STOP_TIME            = 2017-01-02T00:00:00.000
INTERPOLATION        = Lagrange
INTERPOLATION_DEGREE = 7 
META_STOP


                                                                                   

2017-01-01T05:30:00.000  -4.179924690416222e+04   5.338093291563094e+03   1.460206631436545e+03  -3.890008114447832e-01  -3.049908446113517e+00   1.362337756686230e-02
2017-01-01T05:30:10.000  -4.180312579815403e+04   5.307592790162270e+03   1.460342477042289e+03  -3.867779374313932e-01  -3.050191444013228e+00   1.354574184550765e-02
2017-01-01T05:30:20.000  -4.180698246237194e+04   5.277089466926243e+03   1.460477546254514e+03  -3.845548576781264e-01  -3.050472819918562e+00   1.346809889869556e-02
2017-01-01T05:30:30.000  -4.181081689473446e+04   5.246583338315163e+03   1.460611839000124e+03  -3.823315733844503e-01  -3.050752573677698e+00   1.339044876831099e-02
2017-01-01T05:30:40.000  -4.181462909316306e+04   5.216074420863504e+03   1.460745355206118e+03  -3.801080857552485e-01  -3.051030705139024e+00   1.331279149642803e-02
2017-01-01T05:30:50.000  -4.181841905566938e+04   5.185562730480023e+03   1.460878094802660e+03  -3.778843959498028e-01  -3.051307214157517e+00   1.323512712352812e-02
2017-01-01T05:31:00.000  -4.182218678026764e+04   5.155048283149523e+03   1.461010057719997e+03  -3.756605051329365e-01  -3.051582100588332e+00   1.315745569028630e-02
2017-01-01T05:31:10.000  -4.182593226499724e+04   5.124531094751718e+03   1.461141243889262e+03  -3.734364144618138e-01  -3.051855364288472e+00   1.307977723711014e-02
2017-01-01T05:31:20.000  -4.182965550786069e+04   5.094011181548188e+03   1.461271653240289e+03  -3.712121251214293e-01  -3.052127005112237e+00   1.300209180537920e-02
2017-01-01T05:31:30.000  -4.183335650687535e+04   5.063488559780571e+03   1.461401285703435e+03  -3.689876382953243e-01  -3.052397022915017e+00   1.292439943642233e-02
2017-01-01T05:31:40.000  -4.183703526006133e+04   5.032963245763181e+03   1.461530141209151e+03  -3.667629551723362e-01  -3.052665417552402e+00   1.284670017175341e-02
2017-01-01T05:31:50.000  -4.184069176544761e+04   5.002435255847266e+03   1.461658219688197e+03  -3.645380769439939e-01  -3.052932188880627e+00   1.276899405298030e-02
2017-01-01T05:32:00.000  -4.184432602107263e+04   4.971904606403743e+03   1.461785521071663e+03  -3.623130048032602e-01  -3.053197336756617e+00   1.269128112176100e-02
2017-01-01T05:32:10.000  -4.184793802498884e+04   4.941371313786678e+03   1.461912045291130e+03  -3.600877399418688e-01  -3.053460861038324e+00   1.261356141971061e-02
2017-01-01T05:32:20.000  -4.185152777526592e+04   4.910835394316326e+03   1.462037792278778e+03  -3.578622835490895e-01  -3.053722761584948e+00   1.253583498835819e-02
2017-01-01T05:32:30.000  -4.185509526999341e+04   4.880296864242983e+03   1.462162761967485e+03  -3.556366368090938e-01  -3.053983038257147e+00   1.245810186905477e-02
2017-01-01T05:32:40.000  -4.185864050727063e+04   4.849755739839843e+03   1.462286954290469e+03  -3.534108009077209e-01  -3.054241690916286e+00   1.238036210320969e-02
2017-01-01T05:32:50.000  -4.186216348525111e+04   4.819212037000299e+03   1.462410369182843e+03  -3.511847770031305e-01  -3.054498719427688e+00   1.230261573126552e-02
2017-01-01T05:33:00.000  -4.186566420208818e+04   4.788665771725846e+03   1.462533006579715e+03  -3.489585662613604e-01  -3.054754123656662e+00   1.222486279394006e-02
2017-01-01T05:33:10.000  -4.186914265595579e+04   4.758116959941699e+03   1.462654866416916e+03  -3.467321698428897e-01  -3.055007903470019e+00   1.214710333175693e-02
2017-01-01T05:33:20.000  -4.187259884496700e+04   4.727565618211014e+03   1.462775948628136e+03  -3.445055889546889e-01  -3.055260058730126e+00   1.206933738686362e-02
2017-01-01T05:33:30.000  -4.187603276725569e+04   4.697011763020673e+03   1.462896253147797e+03  -3.422788247981709e-01  -3.055510589300872e+00   1.199156500121349e-02
2017-01-01T05:33:40.000  -4.187944442095517e+04   4.666455410965586e+03   1.463015779910302e+03  -3.400518785826208e-01  -3.055759495046108e+00   1.191378621703492e-02
2017-01-01T05:33:50.000  -4.188283380425534e+04   4.635896578261073e+03   1.463134528852030e+03  -3.378247514896595e-01  -3.056006775833803e+00   1.183600107559005e-02
2017-01-01T05:34:00.000  -4.188620091535508e+04   4.605335281145200e+03   1.463252499909678e+03  -3.355974447025648e-01  -3.056252431532589e+00   1.175820961819899e-02
2017-01-01T05:34:10.000  -4.188954575247334e+04   4.574771535786004e+03   1.463369693020641e+03  -3.333699593995114e-01  -3.056496462012563e+00   1.168041188600358e-02
2017-01-01T05:34:20.000  -4.189286831384365e+04   4.544205358317308e+03   1.463486108122824e+03  -3.311422967561793e-01  -3.056738867144877e+00   1.160260792005861e-02
2017-01-01T05:34:30.000  -4.189616859771332e+04   4.513636764855935e+03   1.463601745154618e+03  -3.289144579470106e-01  -3.056979646801700e+00   1.152479776137563e-02
2017-01-01T05:34:40.000  -4.189944660233976e+04   4.483065771538298e+03   1.463716604054760e+03  -3.266864441478742e-01  -3.057218800855927e+00   1.144698145101605e-02
2017-01-01T05:34:50.000  -4.190270232598708e+04   4.452492394537358e+03   1.463830684762225e+03  -3.244582565373025e-01  -3.057456329180951e+00   1.136915903013437e-02
2017-01-01T05:35:00.000  -4.190593576692401e+04   4.421916650098777e+03   1.463943987216145e+03  -3.222298962991262e-01  -3.057692231650492e+00   1.129133054007012e-02
2017-01-01T05:35:10.000  -4.190914692343294e+04   4.391338554447949e+03   1.464056511356134e+03  -3.200013646156989e-01  -3.057926508139275e+00   1.121349602211131e-02
2017-01-01T05:35:20.000  -4.191233579376993e+04   4.360758124193138e+03   1.464168257120878e+03  -3.177726626972778e-01  -3.058159158520102e+00   1.113565551852050e-02
2017-01-01T05:35:30.000  -4.191550237621376e+04   4.330175375837003e+03   1.464279224449857e+03  -3.155437917464224e-01  -3.058390182667429e+00   1.105780907129149e-02
2017-01-01T05:35:40.000  -4.191864666904736e+04   4.299590325958188e+03   1.464389413282698e+03  -3.133147529712311e-01  -3.058619580456017e+00   1.097995672261151e-02
2017-01-01T05:35:50.000  -4.192176867063047e+04   4.269002990507831e+03   1.464498823561719e+03  -3.110855475340689e-01  -3.058847351766235e+00   1.090209851307054e-02
2017-01-01T05:36:00.000  -4.192486837932713e+04   4.238413385511250e+03   1.464607455229380e+03  -3.088561766027068e-01  -3.059073496478753e+00   1.082423448344740e-02
2017-01-01T05:36:10.000  -4.192794579352227e+04   4.207821526908983e+03   1.464715308228881e+03  -3.066266413387369e-01  -3.059298014475780e+00   1.074636467430513e-02
2017-01-01T05:36:20.000  -4.193100091157906e+04   4.177227430952668e+03   1.464822382502651e+03  -3.043969429264244e-01  -3.059520905637925e+00   1.066848912699867e-02
2017-01-01T05:36:30.000  -4.193403373187144e+04   4.146631113911201e+03   1.464928677993501e+03  -3.021670825512919e-01  -3.059742169846595e+00   1.059060788292693e-02
2017-01-01T05:36:40.000  -4.193704425278310e+04   4.116032592070610e+03   1.465034194644576e+03  -2.999370614001103e-01  -3.059961806983896e+00   1.051272098353242e-02
2017-01-01T05:36:50.000  -4.194003247268130e+04   4.085431882028548e+03   1.465138932398449e+03  -2.977068806823618e-01  -3.060179816930744e+00   1.043482847105094e-02
2017-01-01T05:37:00.000  -4.194299838995319e+04   4.054829000297719e+03   1.465242891198382e+03  -2.954765416013372e-01  -3.060396199569497e+00   1.035693038750204e-02
2017-01-01T05:37:10.000  -4.194594200299104e+04   4.024223963462060e+03   1.465346070987824e+03  -2.932460453655188e-01  -3.060610954782901e+00   1.027902677508664e-02
2017-01-01T05:37:20.000  -4.194886331025900e+04   3.993616787486093e+03   1.465448471712733e+03  -2.910153931382453e-01  -3.060824082458927e+00   1.020111767442899e-02
2017-01-01T05:37:30.000  -4.195176231022613e+04   3.963007488405528e+03   1.465550093319243e+03  -2.887845860880441e-01  -3.061035582485919e+00   1.012320312633456e-02
2017-01-01T05:37:40.000  -4.195463900138202e+04   3.932396082171168e+03   1.465650935754204e+03  -2.865536253772535e-01  -3.061245454753716e+00   1.004528317139270e-02
2017-01-01T05:37:50.000  -4.195749338219642e+04   3.901782585045037e+03   1.465750998963768e+03  -2.843225121908948e-01  -3.061453699150702e+00   9.967357850985023e-03
2017-01-01T05:38:00.000  -4.196032545115003e+04   3.871167013306362e+03   1.465850282894475e+03  -2.820912477152415e-01  -3.061660315566068e+00   9.889427206536907e-03
2017-01-01T05:38:10.000  -4.196313520673336e+04   3.840549383251427e+03   1.465948787493200e+03  -2.798598331378108e-01  -3.061865303889717e+00   9.811491279517203e-03
2017-01-01T05:38:20.000  -4.196592264742257e+04   3.809929711488246e+03   1.466046512706318e+03  -2.776282696688385e-01  -3.062068664010504e+00   9.733550112188266e-03
2017-01-01T05:38:30.000  -4.196868777171312e+04   3.779308014539755e+03   1.466143458480875e+03  -2.753965585123597e-01  -3.062270395818695e+00   9.655603746595924e-03
2017-01-01T05:38:40.000  -4.197143057810589e+04   3.748684309003056e+03   1.466239624764109e+03  -2.731647008778147e-01  -3.062470499204948e+00   9.577652224974802e-03
2017-01-01T05:38:50.000  -4.197415106517016e+04   3.718058610846766e+03   1.466335011505653e+03  -2.709326979288396e-01  -3.062668974064917e+00   9.499695587959767e-03
2017-01-01T05:39:00.000  -4.197684923148027e+04   3.687430936115414e+03   1.466429618655317e+03  -2.687005508346025e-01  -3.062865820294617e+00   9.421733876378940e-03
